ONEWEB-0620             
1 55161U 23004X   26187.97538575  .00000560  00000+0  15451-2 0  9998
2 55161  87.8876  17.1360 0002107  91.3252 268.8117 13.11416838168424
ONEWEB-0621             
1 55162U 23004Y   26187.92620705 -.00000286  00000+0 -84167-3 0  9999
2 55162  87.8887  17.1364 0001837  82.2559 277.8778 13.11414255168399
ONEWEB-0622             
1 55163U 23004Z   26187.93129352 -.00000417  00000+0 -12128-2 0  9996
2 55163  87.8889  17.1382 0002403  76.2774 283.8621 13.11415206168384
ONEWEB-0623             
1 55164U 23004AA  26187.91342458  .00000076  00000+0  16300-3 0  9995
2 55164  87.9135   1.9533 0001989  67.5462 292.5880 13.17647744170189
ONEWEB-0624             
1 55165U 23004AB  26187.93301579 -.00000339  00000+0 -97137-3 0  9998
2 55165  87.8958 346.6550 0001794  89.8146 270.3188 13.12928966170661
ONEWEB-0625             
1 55166U 23004AC  26187.90330801  .00000000  00000+0 -33959-4 0  9993
2 55166  87.9137   1.9516 0001725  93.9983 266.1345 13.17650118170174
ONEWEB-0626             
1 55167U 23004AD  26187.89320005  .00001053  00000+0  26779-2 0  9995
2 55167  87.9133   1.9527 0002044  98.7775 261.3588 13.17646112170175
ONEWEB-0627             
1 55168U 23004AE  26187.95730492  .00000069  00000+0  14569-3 0  9999
2 55168  87.9138   1.9407 0001906  76.0102 284.1241 13.17648401170180
ONEWEB-0628             
1 55169U 23004AF  26187.92173955 -.00000321  00000+0 -92842-3 0  9995
2 55169  87.8961 346.7285 0001756  72.4650 287.6671 13.12442032170620
ONEWEB-0629             
1 55170U 23004AG  26187.93284234  .00000029  00000+0  41475-4 0  9991
2 55170  87.9136   1.9414 0001606  84.9919 275.1396 13.17649378170185
ONEWEB-0631             
1 55171U 23004AH  26187.90525743  .00000025  00000+0  31690-4 0  9996
2 55171  87.9187 331.5141 0002390  94.0738 266.0668 13.18686089172277
ONEWEB-0709             
1 55172U 23004AJ  26187.96521245  .00000378  00000+0  10319-2 0  9990
2 55172  87.8878  17.1402 0002502 104.3355 255.8051 13.11418107168461
ONEWEB-0710             
1 55173U 23004AK  26187.87123992  .00000015  00000+0  59969-5 0  9993
2 55173  87.9137   1.9489 0001954  86.8322 273.3033 13.17647917170170
ONEWEB-0711             
1 55174U 23004AL  26187.93637823 -.00000511  00000+0 -14787-2 0  9993
2 55174  87.8881  17.1340 0002181  70.5793 289.5570 13.11415735168421
ONEWEB-0713             
1 55175U 23004AM  26187.95503603 -.00000117  00000+0 -36644-3 0  9993
2 55175  87.8883  17.1321 0002018  78.3168 281.8187 13.11418002168412
ONEWEB-0715             
1 55176U 23004AN  26187.56846175 -.00000202  00000+0 -60687-3 0  9994
2 55176  87.8881  17.2096 0002499  95.6509 264.4904 13.11417514168405
ONEWEB-0716             
1 55177U 23004AP  26187.94042463  .00000020  00000+0  19535-4 0  9998
2 55177  87.9138   1.9378 0001703  96.8170 263.3155 13.17648261170184
ONEWEB-0717             
1 55178U 23004AQ  26187.92356097  .00000052  00000+0  10003-3 0  9993
2 55178  87.9146   1.9309 0002273  79.7619 280.3769 13.17649765170235
ONEWEB-0719             
1 55179U 23004AR  26187.93368207  .00000136  00000+0  31712-3 0  9994
2 55179  87.9147   1.9091 0001661  91.1351 268.9971 13.17650882170189
ONEWEB-0530             
1 55796U 23029A   26188.16547936  .00000076  00000+0  15378-3 0  9993
2 55796  87.9181 270.4865 0001989  86.1630 273.9731 13.20772696163781
ONEWEB-0534             
1 55797U 23029B   26187.69914381 -.00000001  00000+0 -34213-4 0  9993
2 55797  87.9184 270.5802 0001988 101.7368 258.3989 13.20772937163722
ONEWEB-0556             
1 55798U 23029C   26188.16039872  .00001399  00000+0  34078-2 0  9996
2 55798  87.9178 270.4870 0001039 148.5507 211.5689 13.20782024163783
ONEWEB-0562             
1 55799U 23029D   26187.69241877 -.00000015  00000+0 -68798-4 0  9998
2 55799  87.9182 270.5614 0001607  75.9564 284.1748 13.20772038163723
ONEWEB-0563             
1 55800U 23029E   26187.68735630 -.00000031  00000+0 -10905-3 0  9999
2 55800  87.9181 270.5928 0001986 106.2855 253.8497 13.20773538163713
ONEWEB-0564             
1 55801U 23029F   26187.68064152 -.00000027  00000+0 -99020-4 0  9995
2 55801  87.9182 270.5679 0001871  88.9297 271.2050 13.20771907163725
ONEWEB-0638             
1 55802U 23029G   26187.72698149 -.00010439  00000+0 -28202-1 0  9999
2 55802  87.8963 285.8565 0000616  91.4973 268.6227 13.14555689161961
ONEWEB-0639             
1 55803U 23029H   26187.36518747 -.00000031  00000+0 -11065-3 0  9993
2 55803  87.9186 301.1563 0002238 126.0602 234.0738 13.19725457161439
ONEWEB-0640             
1 55804U 23029J   26187.66038455  .00000022  00000+0  23648-4 0  9999
2 55804  87.8963 285.8607 0001361 110.6783 249.4493 13.14501348161977
ONEWEB-0641             
1 55805U 23029K   26187.36045411  .00000081  00000+0  17048-3 0  9998
2 55805  87.9192 301.1479 0002006 105.4715 254.6639 13.19726074161448
ONEWEB-0642             
1 55806U 23029L   26187.88644731 -.00000137  00000+0 -37553-3 0  9993
2 55806  87.9188 301.0540 0002461 119.9371 240.2007 13.19724367161505
ONEWEB-0643             
1 55807U 23029M   26187.70637573  .00000050  00000+0  10153-3 0  9990
2 55807  87.8960 285.8389 0002500 112.5225 247.6169 13.14502396161954
